OBJECT_NAME,OBJECT_ID,EPOCH,MEAN_MOTION,ECCENTRICITY,INCLINATION,RA_OF_ASC_NODE,ARG_OF_PERICENTER,MEAN_ANOMALY,EPHEMERIS_TYPE,CLASSIFICATION_TYPE,NORAD_CAT_ID,ELEMENT_SET_NO,REV_AT_EPOCH,BSTAR,MEAN_MOTION_DOT,MEAN_MOTION_DDOT
PERSEUS-M1,2014-033AF,2026-06-19T20:18:19.992672,14.95637909,.00101209,97.9640,115.0213,291.2422,68.7717,0,U,40039,999,65103,.13253451E-3,.1413E-4,0
POLYITAN-1,2014-033AJ,2026-06-19T14:20:20.047200,15.33326342,.00087612,98.0942,197.0866,134.5443,225.6514,0,U,40042,999,65396,.47013999E-3,.15082E-3,0
TIGRISAT,2014-033AK,2026-06-19T21:04:35.007744,14.85170929,.00504962,97.7835,320.8279,66.5997,294.0517,0,U,40043,999,64602,.17818112E-3,.1506E-4,0
AEROCUBE 6A,2014-033AM,2026-06-20T00:42:01.100160,14.98131862,.00386594,97.7254,337.9480,8.3765,351.8095,0,U,40045,999,64704,.33179392E-3,.3931E-4,0
AEROCUBE 6B,2014-033AN,2026-06-20T00:41:23.433216,14.99592335,.00380984,97.7250,337.7440,359.5463,0.5719,0,U,40046,999,64718,.32995605E-3,.406E-4,0
CANX-4,2014-034C,2026-06-20T04:35:59.715168,14.81269150,.00129424,98.3118,46.6150,7.6652,352.4755,0,U,40055,999,64497,.91586447E-4,.657E-5,0
CANX-5,2014-034D,2026-06-20T04:33:41.321376,14.81286427,.00129415,98.3120,46.6571,7.8849,352.2563,0,U,40056,999,63578,.92409735E-4,.664E-5,0
UKUBE-1,2014-037F,2026-06-19T22:40:36.544224,15.13591351,.00028071,98.4240,174.5065,127.2512,232.8973,0,U,40074,999,64897,.40346435E-3,.7166E-4,0
BRITE-PL2 (HEWELIUSZ),2014-049B,2026-06-20T04:26:29.215968,14.94602935,.00153805,97.9101,283.2081,99.5196,260.7763,0,U,40119,999,64189,.163623E-3,.1715E-4,0
AEROCUBE 5C,2015-058B,2026-06-19T15:38:33.023904,14.91462068,.01308587,64.7663,254.9231,62.3153,299.1166,0,U,40965,999,36602,.14972686E-3,.1588E-4,0
AEROCUBE 7,2015-058C,2026-06-20T07:25:55.638336,14.95740320,.01206348,64.7612,235.0356,60.4529,300.8547,0,U,40966,999,36642,.1929592E-3,.231E-4,0
FOX-1A (AO-85),2015-058D,2026-06-20T07:17:31.159968,14.90980949,.01305968,64.7745,269.2980,55.4027,305.9322,0,U,40967,999,11403,.15842202E-3,.1666E-4,0
SINOD-D 1,2015-058E,2026-06-20T06:53:38.351616,14.95920850,.01192523,64.7745,249.2047,51.8496,309.3292,0,U,40968,999,11712,.19552831E-3,.2348E-4,0
SNAP-3 ALICE,2015-058G,2026-06-20T04:27:55.181376,15.60714090,.00272784,64.7494,93.5606,10.9470,349.2264,0,U,40970,999,11735,.14266437E-2,.123021E-2,0
LMRST-SAT,2015-058H,2026-06-20T06:14:18.076416,14.90600158,.01322285,64.7750,265.7783,57.4335,303.9466,0,U,40971,999,11401,.1471175E-3,.1524E-4,0
SNAP-3 EDDIE,2015-058J,2026-06-20T04:10:02.870976,15.61994061,.00269778,64.7418,84.3057,14.7886,345.4044,0,U,40972,999,11949,.1295175E-2,.117223E-2,0
PROPCUBE 3,2015-058K,2026-06-20T06:54:40.833504,14.94270314,.01242042,64.7677,242.8478,58.6880,302.6323,0,U,40973,999,11526,.17292409E-3,.1984E-4,0
BISONSAT,2015-058L,2026-06-20T04:46:47.530272,15.16248848,.00794089,64.7584,163.9059,46.0046,314.7588,0,U,40974,999,11607,.52128446E-3,.10784E-3,0
SNAP-3 JIMI,2015-058M,2026-06-20T04:26:04.949664,15.02318785,.01063234,64.7632,210.2878,54.1637,306.9301,0,U,40975,999,11467,.24874985E-3,.3536E-4,0
PROPCUBE 1 (FLORA),2015-058N,2026-06-19T16:19:51.782880,14.89230682,.01308696,64.7742,287.5085,59.9684,301.4335,0,U,40976,999,11663,.16026186E-3,.1607E-4,0
SINOD-D 3,2015-058P,2026-06-19T17:13:31.241280,14.94028280,.01194001,64.7726,267.9171,57.1285,304.1252,0,U,40977,999,11513,.20630698E-3,.2359E-4,0
HORYU-4,2016-012D,2026-06-20T01:28:48.707040,15.98434090,.00064496,30.9843,57.8799,290.1158,69.8811,0,U,41340,999,57127,.9774381E-3,.485262E-2,.92252465E-4
RAVAN,2016-067B,2026-06-20T06:16:42.903552,15.54942003,.00038982,97.9878,61.1885,22.2879,337.8542,0,U,41849,999,52817,.67877107E-3,.45505E-3,0
CELTEE 1,2016-067C,2026-06-20T02:30:06.725664,15.19706183,.0001126,98.0669,37.8698,129.3909,230.7424,0,U,41850,999,52632,.21928844E-3,.4605E-4,0
OPTICUBE 04,2016-067D,2026-06-20T01:29:03.029568,15.09670118,.0016963,98.0697,23.4955,106.6848,253.6243,0,U,41851,999,52560,.12205747E-3,.1899E-4,0
AEROCUBE 8D,2016-067E,2026-06-20T04:12:03.471552,15.24432262,.00048449,98.0674,41.5731,116.1739,243.9995,0,U,41852,999,52652,.25855886E-3,.6264E-4,0
AEROCUBE 8C,2016-067F,2026-06-19T14:36:47.023776,15.24674232,.00065037,98.0546,38.1882,62.3132,297.8763,0,U,41853,999,52643,.24098243E-3,.5876E-4,0
CORVUS BC2,2017-042X,2026-06-20T04:25:13.838880,15.06315230,.00145921,97.4077,332.4170,101.2111,259.0758,0,U,42846,999,48751,.20131131E-3,.2906E-4,0
CORVUS BC1,2017-042Y,2026-06-20T04:16:58.923264,15.06482222,.00135117,97.4109,333.2277,80.2944,279.9809,0,U,42847,999,48754,.16888998E-3,.2438E-4,0
MAKERSAT 0,2017-073D,2026-06-20T04:25:15.653280,15.32181843,.01049414,97.4616,53.7262,262.1211,96.8109,0,U,43016,999,46692,.3993561E-3,.14694E-3,0
