PERSEUS-M1              
1 40039U 14033AF  26170.84606473  .00001413  00000+0  13253-3 0  9996
2 40039  97.9640 115.0213 0010120 291.2422  68.7717 14.95637909651036
POLYITAN-1              
1 40042U 14033AJ  26170.59745425  .00015082  00000+0  47014-3 0  9992
2 40042  98.0942 197.0866 0008761 134.5443 225.6514 15.33326342653963
TIGRISAT                
1 40043U 14033AK  26170.87818296  .00001506  00000+0  17818-3 0  9996
2 40043  97.7835 320.8279 0050496  66.5997 294.0517 14.85170929646021
AEROCUBE 6A             
1 40045U 14033AM  26171.02917940  .00003931  00000+0  33179-3 0  9994
2 40045  97.7254 337.9480 0038659   8.3765 351.8095 14.98131862647048
AEROCUBE 6B             
1 40046U 14033AN  26171.02874344  .00004060  00000+0  32996-3 0  9995
2 40046  97.7250 337.7440 0038098 359.5463   0.5719 14.99592335647185
CANX-4                  
1 40055U 14034C   26171.19166337  .00000657  00000+0  91586-4 0  9999
2 40055  98.3118  46.6150 0012942   7.6652 352.4755 14.81269150644970
CANX-5                  
1 40056U 14034D   26171.19006159  .00000664  00000+0  92410-4 0  9990
2 40056  98.3120  46.6571 0012941   7.8849 352.2563 14.81286427635780
UKUBE-1                 
1 40074U 14037F   26170.94486741  .00007166  00000+0  40346-3 0  9998
2 40074  98.4240 174.5065 0002807 127.2512 232.8973 15.13591351648971
BRITE-PL2 (HEWELIUSZ)   
1 40119U 14049B   26171.18506037  .00001715  00000+0  16362-3 0  9994
2 40119  97.9101 283.2081 0015380  99.5196 260.7763 14.94602935641896
AEROCUBE 5C             
1 40965U 15058B   26170.65177111  .00001588  00000+0  14973-3 0  9996
2 40965  64.7663 254.9231 0130858  62.3153 299.1166 14.91462068366021
AEROCUBE 7              
1 40966U 15058C   26171.30967174  .00002310  00000+0  19296-3 0  9993
2 40966  64.7612 235.0356 0120634  60.4529 300.8547 14.95740320366422
FOX-1A (AO-85)          
1 40967U 15058D   26171.30383287  .00001666  00000+0  15842-3 0  9997
2 40967  64.7745 269.2980 0130596  55.4027 305.9322 14.90980949114030
SINOD-D 1               
1 40968U 15058E   26171.28724944  .00002348  00000+0  19553-3 0  9995
2 40968  64.7745 249.2047 0119252  51.8496 309.3292 14.95920850117126
SNAP-3 ALICE            
1 40970U 15058G   26171.18605534  .00123021  00000+0  14266-2 0  9997
2 40970  64.7494  93.5606 0027278  10.9470 349.2264 15.60714090117352
LMRST-SAT               
1 40971U 15058H   26171.25993144  .00001524  00000+0  14712-3 0  9993
2 40971  64.7750 265.7783 0132228  57.4335 303.9466 14.90600158114017
SNAP-3 EDDIE            
1 40972U 15058J   26171.17364434  .00117223  00000+0  12952-2 0  9996
2 40972  64.7418  84.3057 0026977  14.7886 345.4044 15.61994061119496
PROPCUBE 3              
1 40973U 15058K   26171.28797261  .00001984  00000+0  17292-3 0  9996
2 40973  64.7677 242.8478 0124204  58.6880 302.6323 14.94270314115264
BISONSAT                
1 40974U 15058L   26171.19916123  .00010784  00000+0  52128-3 0  9992
2 40974  64.7584 163.9059 0079408  46.0046 314.7588 15.16248848116079
SNAP-3 JIMI             
1 40975U 15058M   26171.18477951  .00003536  00000+0  24875-3 0  9998
2 40975  64.7632 210.2878 0106323  54.1637 306.9301 15.02318785114675
PROPCUBE 1 (FLORA)      
1 40976U 15058N   26170.68046045  .00001607  00000+0  16026-3 0  9995
2 40976  64.7742 287.5085 0130869  59.9684 301.4335 14.89230682116630
SINOD-D 3               
1 40977U 15058P   26170.71772270  .00002359  00000+0  20631-3 0  9998
2 40977  64.7726 267.9171 0119400  57.1285 304.1252 14.94028280115133
HORYU-4                 
1 41340U 16012D   26171.06167485  .00485262  92252-4  97744-3 0  9991
2 41340  30.9843  57.8799 0006449 290.1158  69.8811 15.98434090571273
RAVAN                   
1 41849U 16067B   26171.26160768  .00045505  00000+0  67877-3 0  9995
2 41849  97.9878  61.1885 0003898  22.2879 337.8542 15.54942003528171
CELTEE 1                
1 41850U 16067C   26171.10424451  .00004605  00000+0  21929-3 0  9996
2 41850  98.0669  37.8698 0001126 129.3909 230.7424 15.19706183526323
OPTICUBE 04             
1 41851U 16067D   26171.06184062  .00001899  00000+0  12206-3 0  9993
2 41851  98.0697  23.4955 0016963 106.6848 253.6243 15.09670118525607
AEROCUBE 8D             
1 41852U 16067E   26171.17504018  .00006264  00000+0  25856-3 0  9999
2 41852  98.0674  41.5731 0004844 116.1739 243.9995 15.24432262526527
AEROCUBE 8C             
1 41853U 16067F   26170.60887759  .00005876  00000+0  24098-3 0  9998
2 41853  98.0546  38.1882 0006503  62.3132 297.8763 15.24674232526434
CORVUS BC2              
1 42846U 17042X   26171.18418795  .00002906  00000+0  20131-3 0  9994
2 42846  97.4077 332.4170 0014592 101.2111 259.0758 15.06315230487515
CORVUS BC1              
1 42847U 17042Y   26171.17845976  .00002438  00000+0  16889-3 0  9994
2 42847  97.4109 333.2277 0013511  80.2944 279.9809 15.06482222487546
MAKERSAT 0              
1 43016U 17073D   26171.18420895  .00014694  00000+0  39936-3 0  9992
2 43016  97.4616  53.7262 0104941 262.1211  96.8109 15.32181843466924
